[{"OBJECT_NAME":"STARLINK-6380","OBJECT_ID":"2023-099S","EPOCH":"2026-03-09T12:33:16.917408","MEAN_MOTION":15.02540942,"ECCENTRICITY":0.00014676,"INCLINATION":43.0018,"RA_OF_ASC_NODE":249.6909,"ARG_OF_PERICENTER":272.2742,"MEAN_ANOMALY":87.7932,"EPHEMERIS_TYPE":0,"CLASSIFICATION_TYPE":"U","NORAD_CAT_ID":57344,"ELEMENT_SET_NO":999,"REV_AT_EPOCH":14609,"BSTAR":-0.00024606554,"MEAN_MOTION_DOT":-3.526e-5,"MEAN_MOTION_DDOT":0},{"OBJECT_NAME":"RAX (USA 218)","OBJECT_ID":"2010-062B","EPOCH":"2026-03-09T23:21:07.029792","MEAN_MOTION":14.99597607,"ECCENTRICITY":0.00156448,"INCLINATION":71.9685,"RA_OF_ASC_NODE":266.5192,"ARG_OF_PERICENTER":230.5338,"MEAN_ANOMALY":129.4452,"EPHEMERIS_TYPE":0,"CLASSIFICATION_TYPE":"U","NORAD_CAT_ID":37223,"ELEMENT_SET_NO":999,"REV_AT_EPOCH":9933,"BSTAR":0.00040559866,"MEAN_MOTION_DOT":4.944e-5,"MEAN_MOTION_DDOT":0}]
